{
  "links" : {
    "next" : "https://api.nasa.gov/neo/rest/v1/feed?start_date=2010-08-23&end_date=2010-08-23&detailed=true&api_key=t0TVs3DtDT2H8Oy2Zy8m2eVrNsAVKAexjcZXUckd",
    "prev" : "https://api.nasa.gov/neo/rest/v1/feed?start_date=2010-08-21&end_date=2010-08-21&detailed=true&api_key=t0TVs3DtDT2H8Oy2Zy8m2eVrNsAVKAexjcZXUckd",
    "self" : "https://api.nasa.gov/neo/rest/v1/feed?start_date=2010-08-22&end_date=2010-08-22&detailed=true&api_key=t0TVs3DtDT2H8Oy2Zy8m2eVrNsAVKAexjcZXUckd"
  },
  "element_count" : 4,
  "near_earth_objects" : {
    "2010-08-22" : [ {
      "links" : {
        "self" : "https://api.nasa.gov/neo/rest/v1/neo/3405070?api_key=t0TVs3DtDT2H8Oy2Zy8m2eVrNsAVKAexjcZXUckd"
      },
      "neo_reference_id" : "3405070",
      "name" : "(2008 EN6)",
      "nasa_jpl_url" : "http://ssd.jpl.nasa.gov/sbdb.cgi?sstr=3405070",
      "absolute_magnitude_h" : 19.1,
      "estimated_diameter" : {
        "kilometers" : {
          "estimated_diameter_min" : 0.4023045798,
          "estimated_diameter_max" : 0.8995803882
        },
        "meters" : {
          "estimated_diameter_min" : 402.3045798343,
          "estimated_diameter_max" : 899.5803881691
        },
        "miles" : {
          "estimated_diameter_min" : 0.2499803991,
          "estimated_diameter_max" : 0.5589731654
        },
        "feet" : {
          "estimated_diameter_min" : 1319.8969577037,
          "estimated_diameter_max" : 2951.3793207207
        }
      },
      "is_potentially_hazardous_asteroid" : false,
      "close_approach_data" : [ {
        "close_approach_date" : "2010-08-22",
        "epoch_date_close_approach" : 1282460400000,
        "relative_velocity" : {
          "kilometers_per_second" : "19.539131907",
          "kilometers_per_hour" : "70340.8748653512",
          "miles_per_hour" : "43707.0841628623"
        },
        "miss_distance" : {
          "astronomical" : "0.2407414847",
          "lunar" : "93.6484375",
          "kilometers" : "36014416",
          "miles" : "22378320"
        },
        "orbiting_body" : "Earth"
      } ],
      "orbital_data" : {
        "orbit_id" : "19",
        "orbit_determination_date" : "2017-04-20 12:26:04",
        "orbit_uncertainty" : "2",
        "minimum_orbit_intersection" : ".204215",
        "jupiter_tisserand_invariant" : "4.348",
        "epoch_osculation" : "2458000.5",
        "eccentricity" : ".4678478731702093",
        "semi_major_axis" : "1.482650929028735",
        "inclination" : "27.32771545596137",
        "ascending_node_longitude" : "339.3358519516486",
        "orbital_period" : "659.4119267532349",
        "perihelion_distance" : ".7889958452288063",
        "perihelion_argument" : "344.0474577489423",
        "aphelion_distance" : "2.176306012828664",
        "perihelion_time" : "2458061.798387141199",
        "mean_anomaly" : "326.5346978489065",
        "mean_motion" : ".5459409898339906",
        "equinox" : "J2000"
      }
    }, {
      "links" : {
        "self" : "https://api.nasa.gov/neo/rest/v1/neo/3543621?api_key=t0TVs3DtDT2H8Oy2Zy8m2eVrNsAVKAexjcZXUckd"
      },
      "neo_reference_id" : "3543621",
      "name" : "(2010 OK126)",
      "nasa_jpl_url" : "http://ssd.jpl.nasa.gov/sbdb.cgi?sstr=3543621",
      "absolute_magnitude_h" : 20.6,
      "estimated_diameter" : {
        "kilometers" : {
          "estimated_diameter_min" : 0.2016299194,
          "estimated_diameter_max" : 0.4508582062
        },
        "meters" : {
          "estimated_diameter_min" : 201.6299194428,
          "estimated_diameter_max" : 450.8582061718
        },
        "miles" : {
          "estimated_diameter_min" : 0.1252869847,
          "estimated_diameter_max" : 0.2801502144
        },
        "feet" : {
          "estimated_diameter_min" : 661.5155049046,
          "estimated_diameter_max" : 1479.1936371367
        }
      },
      "is_potentially_hazardous_asteroid" : false,
      "close_approach_data" : [ {
        "close_approach_date" : "2010-08-22",
        "epoch_date_close_approach" : 1282460400000,
        "relative_velocity" : {
          "kilometers_per_second" : "27.1811476748",
          "kilometers_per_hour" : "97852.1316291349",
          "miles_per_hour" : "60801.50923367"
        },
        "miss_distance" : {
          "astronomical" : "0.2977510152",
          "lunar" : "115.8251419067",
          "kilometers" : "44542916",
          "miles" : "27677686"
        },
        "orbiting_body" : "Earth"
      } ],
      "orbital_data" : {
        "orbit_id" : "15",
        "orbit_determination_date" : "2017-04-06 08:57:03",
        "orbit_uncertainty" : "1",
        "minimum_orbit_intersection" : ".147028",
        "jupiter_tisserand_invariant" : "3.328",
        "epoch_osculation" : "2458000.5",
        "eccentricity" : ".4465867807509779",
        "semi_major_axis" : "1.955320619497258",
        "inclination" : "52.57008879320821",
        "ascending_node_longitude" : "338.3059425728951",
        "orbital_period" : "998.6778025333427",
        "perihelion_distance" : "1.08210027869997",
        "perihelion_argument" : "320.997423770098",
        "aphelion_distance" : "2.828540960294546",
        "perihelion_time" : "2458383.279462228187",
        "mean_anomaly" : "222.0169527623534",
        "mean_motion" : ".3604766212754396",
        "equinox" : "J2000"
      }
    }, {
      "links" : {
        "self" : "https://api.nasa.gov/neo/rest/v1/neo/3545713?api_key=t0TVs3DtDT2H8Oy2Zy8m2eVrNsAVKAexjcZXUckd"
      },
      "neo_reference_id" : "3545713",
      "name" : "(2010 RJ43)",
      "nasa_jpl_url" : "http://ssd.jpl.nasa.gov/sbdb.cgi?sstr=3545713",
      "absolute_magnitude_h" : 23.7,
      "estimated_diameter" : {
        "kilometers" : {
          "estimated_diameter_min" : 0.0483676488,
          "estimated_diameter_max" : 0.1081533507
        },
        "meters" : {
          "estimated_diameter_min" : 48.3676488219,
          "estimated_diameter_max" : 108.1533506775
        },
        "miles" : {
          "estimated_diameter_min" : 0.0300542543,
          "estimated_diameter_max" : 0.0672033557
        },
        "feet" : {
          "estimated_diameter_min" : 158.6865169607,
          "estimated_diameter_max" : 354.8338390368
        }
      },
      "is_potentially_hazardous_asteroid" : false,
      "close_approach_data" : [ {
        "close_approach_date" : "2010-08-22",
        "epoch_date_close_approach" : 1282460400000,
        "relative_velocity" : {
          "kilometers_per_second" : "13.140102398",
          "kilometers_per_hour" : "47304.368632953",
          "miles_per_hour" : "29393.0950541813"
        },
        "miss_distance" : {
          "astronomical" : "0.0672925367",
          "lunar" : "26.1767959595",
          "kilometers" : "10066820",
          "miles" : "6255232"
        },
        "orbiting_body" : "Earth"
      } ],
      "orbital_data" : {
        "orbit_id" : "13",
        "orbit_determination_date" : "2017-04-06 08:56:46",
        "orbit_uncertainty" : "2",
        "minimum_orbit_intersection" : ".0208383",
        "jupiter_tisserand_invariant" : "6.596",
        "epoch_osculation" : "2458000.5",
        "eccentricity" : ".4959469590723521",
        "semi_major_axis" : ".8840846594929069",
        "inclination" : "6.881150534531995",
        "ascending_node_longitude" : "319.5386118929637",
        "orbital_period" : "303.6261754284594",
        "perihelion_distance" : ".4456255610548839",
        "perihelion_argument" : "236.740951715271",
        "aphelion_distance" : "1.32254375793093",
        "perihelion_time" : "2458093.062249332139",
        "mean_anomaly" : "250.2518542330961",
        "mean_motion" : "1.185668526410772",
        "equinox" : "J2000"
      }
    }, {
      "links" : {
        "self" : "https://api.nasa.gov/neo/rest/v1/neo/3550300?api_key=t0TVs3DtDT2H8Oy2Zy8m2eVrNsAVKAexjcZXUckd"
      },
      "neo_reference_id" : "3550300",
      "name" : "(2010 VD1)",
      "nasa_jpl_url" : "http://ssd.jpl.nasa.gov/sbdb.cgi?sstr=3550300",
      "absolute_magnitude_h" : 22.1,
      "estimated_diameter" : {
        "kilometers" : {
          "estimated_diameter_min" : 0.1010543415,
          "estimated_diameter_max" : 0.2259643771
        },
        "meters" : {
          "estimated_diameter_min" : 101.054341542,
          "estimated_diameter_max" : 225.9643771094
        },
        "miles" : {
          "estimated_diameter_min" : 0.0627922373,
          "estimated_diameter_max" : 0.140407711
        },
        "feet" : {
          "estimated_diameter_min" : 331.5431259047,
          "estimated_diameter_max" : 741.3529669956
        }
      },
      "is_potentially_hazardous_asteroid" : false,
      "close_approach_data" : [ {
        "close_approach_date" : "2010-08-22",
        "epoch_date_close_approach" : 1282460400000,
        "relative_velocity" : {
          "kilometers_per_second" : "8.6287213781",
          "kilometers_per_hour" : "31063.3969612184",
          "miles_per_hour" : "19301.5868507082"
        },
        "miss_distance" : {
          "astronomical" : "0.1046345527",
          "lunar" : "40.7028427124",
          "kilometers" : "15653106",
          "miles" : "9726389"
        },
        "orbiting_body" : "Earth"
      } ],
      "orbital_data" : {
        "orbit_id" : "23",
        "orbit_determination_date" : "2017-04-06 08:55:57",
        "orbit_uncertainty" : "0",
        "minimum_orbit_intersection" : ".0520925",
        "jupiter_tisserand_invariant" : "3.547",
        "epoch_osculation" : "2458000.5",
        "eccentricity" : ".5434036851439542",
        "semi_major_axis" : "2.090784255541856",
        "inclination" : "6.010985649438776",
        "ascending_node_longitude" : "25.92136111425949",
        "orbital_period" : "1104.236906742119",
        "perihelion_distance" : ".9546443862394526",
        "perihelion_argument" : "297.0006990022169",
        "aphelion_distance" : "3.226924124844259",
        "perihelion_time" : "2457634.115304683031",
        "mean_anomaly" : "119.4476380102663",
        "mean_motion" : ".3260169967168771",
        "equinox" : "J2000"
      }
    } ]
  }
}